NORAD_CAT_ID,OBJECT_NAME,OBJECT_TYPE,EPOCH,MEAN_MOTION,ECCENTRICITY,INCLINATION,RA_OF_ASC_NODE,ARG_OF_PERICENTER,MEAN_ANOMALY,BSTAR,MEAN_MOTION_DOT,MEAN_MOTION_DDOT,TLE_LINE0,TLE_LINE1,TLE_LINE2,SEMIMAJOR_AXIS,PERIOD,APOGEE,PERIGEE,DECAYED
52463.0,STARLINK-3885,PAYLOAD,2024-04-26 14:17:39,15.08841384,0.0001457,53.2169,231.1609,100.2843,259.8313,0.00033642,5.07e-05,0.0,0 STARLINK-3885,1 52463U 22049N   24117.59559785  .00005070  00000-0  33642-3 0  9998,2 52463  53.2169 231.1609 0001457 100.2843 259.8313 15.08841384109413,6917.876,95.437,540.749,538.733,0.0
52463.0,STARLINK-3885,PAYLOAD,2024-04-27 14:08:26,15.08849149,0.0001484,53.2185,226.705,77.5052,282.6107,0.00022594,3.311e-05,0.0,0 STARLINK-3885,1 52463U 22049N   24118.58919626  .00003311  00000-0  22594-3 0  9992,2 52463  53.2185 226.7050 0001484  77.5052 282.6107 15.08849149109725,6917.852,95.437,540.744,538.691,0.0
52463.0,STARLINK-3885,PAYLOAD,2024-04-28 13:59:14,15.08833778,0.0001413,53.2183,222.2408,79.9406,280.1746,-1.1605e-05,-4.73e-06,0.0,0 STARLINK-3885,1 52463U 22049N   24119.58280860 -.00000473  00000-0 -11605-4 0  9994,2 52463  53.2183 222.2408 0001413  79.9406 280.1746 15.08833778109871,6917.899,95.438,540.742,538.787,0.0
52463.0,STARLINK-3885,PAYLOAD,2024-04-29 12:14:38,15.08843176,0.0001445,53.2179,218.0794,78.9581,281.1574,3.3369e-05,2.43e-06,0.0,0 STARLINK-3885,1 52463U 22049N   24120.51016506  .00000243  00000-0  33369-4 0  9997,2 52463  53.2179 218.0794 0001445  78.9581 281.1574 15.08843176110016,6917.871,95.437,540.735,538.736,0.0
52463.0,STARLINK-3885,PAYLOAD,2024-04-29 13:50:01,15.08846889,0.0001437,53.218,217.7819,75.1581,284.957,6.5859e-05,7.61e-06,0.0,0 STARLINK-3885,1 52463U 22049N   24120.57640200  .00000761  00000-0  65859-4 0  9991,2 52463  53.2180 217.7819 0001437  75.1581 284.9570 15.08846889109864,6917.859,95.437,540.718,538.73,0.0
52463.0,STARLINK-3885,PAYLOAD,2024-04-29 15:25:24,15.08847052,0.000146,53.2184,217.4845,74.8497,285.2656,9.5024e-05,1.225e-05,0.0,0 STARLINK-3885,1 52463U 22049N   24120.64264128  .00001225  00000-0  95024-4 0  9993,2 52463  53.2184 217.4845 0001460  74.8497 285.2656 15.08847052109875,6917.859,95.437,540.734,538.714,0.0
52463.0,STARLINK-3885,PAYLOAD,2024-04-30 05:43:53,15.08832806,0.0001744,53.219,214.8053,64.2926,295.8246,0.00016239,2.297e-05,0.0,0 STARLINK-3885,1 52463U 22049N   24121.23881017  .00002297  00000-0  16239-3 0  9991,2 52463  53.2190 214.8053 0001744  64.2926 295.8246 15.08832806110122,6917.902,95.438,540.974,538.561,0.0
52463.0,STARLINK-3885,PAYLOAD,2024-04-30 13:40:48,15.08838291,0.0001676,53.2181,213.3193,65.4842,294.6325,0.00017483,2.495e-05,0.0,0 STARLINK-3885,1 52463U 22049N   24121.57000661  .00002495  00000-0  17483-3 0  9998,2 52463  53.2181 213.3193 0001676  65.4842 294.6325 15.08838291110012,6917.886,95.438,540.91,538.591,0.0
52463.0,STARLINK-3885,PAYLOAD,2024-04-30 23:13:07,15.08844618,0.0001623,53.2168,211.5349,55.59,304.5245,0.00016566,2.35e-05,0.0,0 STARLINK-3885,1 52463U 22049N   24121.96744233  .00002350  00000-0  16566-3 0  9992,2 52463  53.2168 211.5349 0001623  55.5900 304.5245 15.08844618110233,6917.866,95.437,540.854,538.609,0.0
52463.0,STARLINK-3885,PAYLOAD,2024-05-01 11:56:14,15.08825432,0.0001916,53.2186,209.1568,66.1447,293.9745,-0.00012155,-2.221e-05,0.0,0 STARLINK-3885,1 52463U 22049N   24122.49738577 -.00002221  00000-0 -12155-3 0  9994,2 52463  53.2186 209.1568 0001916  66.1447 293.9745 15.08825432110316,6917.925,95.438,541.115,538.464,0.0
52463.0,STARLINK-3885,PAYLOAD,2024-05-02 05:25:26,15.08846696,0.0001589,53.2172,205.8857,63.3638,296.7517,0.00010498,1.383e-05,0.0,0 STARLINK-3885,1 52463U 22049N   24123.22600585  .00001383  00000-0  10498-3 0  9997,2 52463  53.2172 205.8857 0001589  63.3638 296.7517 15.08846696110427,6917.86,95.437,540.824,538.626,0.0
52463.0,STARLINK-3885,PAYLOAD,2024-05-02 11:46:58,15.08856667,0.0001586,53.2165,204.6944,67.6315,292.4845,0.0001278,1.747e-05,0.0,0 STARLINK-3885,1 52463U 22049N   24123.49095639  .00001747  00000-0  12780-3 0  9994,2 52463  53.2165 204.6944 0001586  67.6315 292.4845 15.08856667110469,6917.829,95.437,540.792,538.597,0.0
52463.0,STARLINK-3885,PAYLOAD,2024-05-03 05:16:13,15.08849491,0.0002656,53.2151,201.425,75.6132,284.5155,0.00022538,3.301e-05,0.0,0 STARLINK-3885,1 52463U 22049N   24124.21959686  .00003301  00000-0  22538-3 0  9996,2 52463  53.2151 201.4250 0002656  75.6132 284.5155 15.08849491110579,6917.851,95.437,541.554,537.879,0.0
52463.0,STARLINK-3885,PAYLOAD,2024-05-03 14:48:31,15.08858028,0.0001557,53.2175,199.6391,80.7144,279.4024,0.00010911,1.45e-05,0.0,0 STARLINK-3885,1 52463U 22049N   24124.61703077  .00001450  00000-0  10911-3 0  9996,2 52463  53.2175 199.6391 0001557  80.7144 279.4024 15.08858028110471,6917.825,95.436,540.767,538.613,0.0
52463.0,STARLINK-3885,PAYLOAD,2024-05-04 05:07:01,15.08834109,0.0001422,53.2152,196.9628,67.688,292.4263,-0.00014618,-2.613e-05,0.0,0 STARLINK-3885,1 52463U 22049N   24125.21321233 -.00002613  00000-0 -14618-3 0  9995,2 52463  53.2152 196.9628 0001422  67.6880 292.4263 15.08834109110723,6917.898,95.438,540.747,538.78,0.0
52463.0,STARLINK-3885,PAYLOAD,2024-05-05 11:19:20,15.08843292,0.0001477,53.2165,191.3124,87.0818,273.0343,4.7061e-07,-2.8e-06,0.0,0 STARLINK-3885,1 52463U 22049N   24126.47176646 -.00000280  00000-0  47061-6 0  9998,2 52463  53.2165 191.3124 0001477  87.0818 273.0343 15.08843292110912,6917.87,95.437,540.757,538.714,0.0
52463.0,STARLINK-3885,PAYLOAD,2024-05-05 14:30:06,15.08844172,0.0001453,53.2163,190.7171,87.6463,272.4695,1.2456e-05,-9e-07,0.0,0 STARLINK-3885,1 52463U 22049N   24126.60424583 -.00000090  00000-0  12456-4 0  9996,2 52463  53.2163 190.7171 0001453  87.6463 272.4695 15.08844172110776,6917.868,95.437,540.738,538.727,0.0
52463.0,STARLINK-3885,PAYLOAD,2024-05-05 20:51:39,15.08847267,0.000147,53.2168,189.5287,86.8541,273.2619,-2.028e-06,-3.2e-06,0.0,0 STARLINK-3885,1 52463U 22049N   24126.86920390 -.00000320  00000-0 -20280-5 0  9993,2 52463  53.2168 189.5287 0001470  86.8541 273.2619 15.08847267110810,6917.858,95.437,540.74,538.706,0.0
52463.0,STARLINK-3885,PAYLOAD,2024-05-06 11:10:07,15.08851815,0.0001489,53.2159,186.8536,90.9092,269.207,0.00048416,7.428e-05,0.0,0 STARLINK-3885,1 52463U 22049N   24127.46536588  .00007428  00000-0  48416-3 0  9995,2 52463  53.2159 186.8536 0001489  90.9092 269.2070 15.08851815110904,6917.844,95.437,540.739,538.679,0.0
52463.0,STARLINK-3885,PAYLOAD,2024-05-06 20:42:26,15.08847572,0.0001453,53.2152,185.07,93.2501,266.8657,0.00034536,5.214e-05,0.0,0 STARLINK-3885,1 52463U 22049N   24127.86280675  .00005214  00000-0  34536-3 0  9991,2 52463  53.2152 185.0700 0001453  93.2501 266.8657 15.08847572111127,6917.857,95.437,540.727,538.717,0.0
52463.0,STARLINK-3885,PAYLOAD,2024-05-07 12:36:17,15.0885205,0.0001515,53.2157,182.0964,95.024,265.0925,0.0001815,2.603e-05,0.0,0 STARLINK-3885,1 52463U 22049N   24128.52520050  .00002603  00000-0  18150-3 0  9992,2 52463  53.2157 182.0964 0001515  95.0240 265.0925 15.08852050111069,6917.844,95.437,540.757,538.661,0.0
52463.0,STARLINK-3885,PAYLOAD,2024-05-08 10:51:42,15.08842273,0.0001569,53.2168,177.9336,82.9952,277.1218,-3.3922e-05,-8.28e-06,0.0,0 STARLINK-3885,1 52463U 22049N   24129.45257076 -.00000828  00000-0 -33922-4 0  9994,2 52463  53.2168 177.9336 0001569  82.9952 277.1218 15.08842273111369,6917.873,95.437,540.824,538.653,0.0
52463.0,STARLINK-3885,PAYLOAD,2024-05-08 20:24:00,15.08848089,0.0001337,53.216,176.1468,89.289,270.8256,-3.3369e-05,-8.19e-06,0.0,0 STARLINK-3885,1 52463U 22049N   24129.85000325 -.00000819  00000-0 -33369-4 0  9996,2 52463  53.2160 176.1468 0001337  89.2890 270.8256 15.08848089111264,6917.856,95.437,540.646,538.796,0.0
52463.0,STARLINK-3885,PAYLOAD,2024-05-09 10:42:27,15.08852784,0.0001416,53.2158,173.4726,85.5128,274.6026,0.00015361,2.158e-05,0.0,0 STARLINK-3885,1 52463U 22049N   24130.44615614  .00002158  00000-0  15361-3 0  9993,2 52463  53.2158 173.4726 0001416  85.5128 274.6026 15.08852784111353,6917.841,95.437,540.686,538.727,0.0
52463.0,STARLINK-3885,PAYLOAD,2024-05-10 02:36:20,15.08841208,0.0001418,53.2156,170.5001,82.6644,277.451,0.00013053,1.79e-05,0.0,0 STARLINK-3885,1 52463U 22049N   24131.10856550  .00001790  00000-0  13053-3 0  9990,2 52463  53.2156 170.5001 0001418  82.6644 277.4510 15.08841208111615,6917.877,95.437,540.723,538.761,0.0
52463.0,STARLINK-3885,PAYLOAD,2024-05-10 12:08:38,15.08840463,0.0001453,53.2161,168.7119,99.8481,260.2676,9.2551e-05,1.185e-05,0.0,0 STARLINK-3885,1 52463U 22049N   24131.50600661  .00001185  00000-0  92551-4 0  9993,2 52463  53.2161 168.7119 0001453  99.8481 260.2676 15.08840463111512,6917.879,95.438,540.749,538.739,0.0
52463.0,STARLINK-3885,PAYLOAD,2024-05-10 20:05:34,15.08843644,0.0001304,53.2159,167.2256,95.3006,264.8135,0.00011336,1.517e-05,0.0,0 STARLINK-3885,1 52463U 22049N   24131.83720462  .00001517  00000-0  11336-3 0  9991,2 52463  53.2159 167.2256 0001304  95.3006 264.8135 15.08843644111563,6917.869,95.437,540.636,538.832,0.0
52463.0,STARLINK-3885,PAYLOAD,2024-05-11 11:59:22,15.08900018,0.0001357,53.2149,164.2505,106.1432,253.971,0.00076555,0.00011937,0.0,0 STARLINK-3885,1 52463U 22049N   24132.49956693  .00011937  00000-0  76555-3 0  9992,2 52463  53.2149 164.2505 0001357 106.1432 253.9710 15.08900018111824,6917.697,95.434,540.501,538.623,0.0
52463.0,STARLINK-3885,PAYLOAD,2024-05-12 05:28:39,15.08832315,0.0001434,53.2148,160.9801,120.6547,239.4587,-0.00024534,-4.19e-05,0.0,0 STARLINK-3885,1 52463U 22049N   24133.22823726 -.00004190  00000-0 -24534-3 0  9999,2 52463  53.2148 160.9801 0001434 120.6547 239.4587 15.08832315111936,6917.904,95.438,540.761,538.777,0.0
52463.0,STARLINK-3885,PAYLOAD,2024-05-12 08:39:28,15.08759164,0.0001289,53.2149,160.3856,87.9473,272.1667,-0.001674,-0.00026772,0.0,0 STARLINK-3885,1 52463U 22049N   24133.36074298 -.00026772  00000-0 -16740-2 0  9995,2 52463  53.2149 160.3856 0001289  87.9473 272.1667 15.08759164111957,6918.127,95.443,540.884,539.101,0.0
